COMMENT,ORIGINATOR,NORAD_CAT_ID,OBJECT_NAME,OBJECT_TYPE,CLASSIFICATION_TYPE,INTLDES,EPOCH,EPOCH_MICROSECONDS,MEAN_MOTION,ECCENTRICITY,INCLINATION,RA_OF_ASC_NODE,ARG_OF_PERICENTER,MEAN_ANOMALY,EPHEMERIS_TYPE,ELEMENT_SET_NO,REV_AT_EPOCH,BSTAR,MEAN_MOTION_DOT,MEAN_MOTION_DDOT,FILE,TLE_LINE0,TLE_LINE1,TLE_LINE2,OBJECT_ID,OBJECT_NUMBER,SEMIMAJOR_AXIS,PERIOD,APOGEE,PERIGEE,DECAYED
"GENERATED VIA SPACETRACK.ORG API","18 SPCS","55096","SPACEBEE-161","PAYLOAD","U","23001CR","2024-02-03 16:52:18","116544","15.3246852","0.0010594","97.4441","99.1484","267.702","92.3009","0","999","6039","0.00097112","0.00030504","0","4178680","0 SPACEBEE-161","1 55096U 23001CR  24034.70298746  .00030504  00000-0  97112-3 0  9992","2 55096  97.4441  99.1484 0010594 267.7020  92.3009 15.32468520 60391","2023-001CR","55096","6846.587","93.966","475.705","461.199","0"
"GENERATED VIA SPACETRACK.ORG API","18 SPCS","55096","SPACEBEE-161","PAYLOAD","U","23001CR","2024-02-03 16:52:18","116544","15.3246852","0.0010594","97.4441","99.1484","267.702","92.3009","0","999","6039","0.00097112","0.00030504","0","4178824","0 SPACEBEE-161","1 55096U 23001CR  24034.70298746  .00030504  00000-0  97112-3 0  9992","2 55096  97.4441  99.1484 0010594 267.7020  92.3009 15.32468520 60391","2023-001CR","55096","6846.587","93.966","475.705","461.199","0"
"GENERATED VIA SPACETRACK.ORG API","18 SPCS","55096","SPACEBEE-161","PAYLOAD","U","23001CR","2024-02-04 03:50:28","962816","15.3249898","0.0010598","97.4439","99.6081","265.8499","94.1532","0","999","6046","0.0010639","0.00033471","0","4179372","0 SPACEBEE-161","1 55096U 23001CR  24035.16005744  .00033471  00000-0  10639-2 0  9991","2 55096  97.4439  99.6081 0010598 265.8499  94.1532 15.32498980 60461","2023-001CR","55096","6846.496","93.964","475.617","461.105","0"
"GENERATED VIA SPACETRACK.ORG API","18 SPCS","55096","SPACEBEE-161","PAYLOAD","U","23001CR","2024-02-04 17:56:41","724096","15.32540304","0.0010623","97.4434","100.1992","264.2091","95.794","0","999","6055","0.0011059","0.00034847","0","4179505","0 SPACEBEE-161","1 55096U 23001CR  24035.74770514  .00034847  00000-0  11059-2 0  9994","2 55096  97.4434 100.1992 0010623 264.2091  95.7940 15.32540304 60553","2023-001CR","55096","6846.373","93.962","475.511","460.965","0"
"GENERATED VIA SPACETRACK.ORG API","18 SPCS","55096","SPACEBEE-161","PAYLOAD","U","23001CR","2024-02-04 17:56:41","724096","15.32540304","0.0010623","97.4434","100.1992","264.2091","95.794","0","999","6055","0.0011059","0.00034847","0","4179687","0 SPACEBEE-161","1 55096U 23001CR  24035.74770514  .00034847  00000-0  11059-2 0  9994","2 55096  97.4434 100.1992 0010623 264.2091  95.7940 15.32540304 60553","2023-001CR","55096","6846.373","93.962","475.511","460.965","0"
"GENERATED VIA SPACETRACK.ORG API","18 SPCS","55096","SPACEBEE-161","PAYLOAD","U","23001CR","2024-02-05 03:20:49","473600","15.32568876","0.0010646","97.4434","100.5932","262.8486","97.1546","0","999","6061","0.0011763","0.00037115","0","4180290","0 SPACEBEE-161","1 55096U 23001CR  24036.13946150  .00037115  00000-0  11763-2 0  9992","2 55096  97.4434 100.5932 0010646 262.8486  97.1546 15.32568876 60617","2023-001CR","55096","6846.288","93.960","475.442","460.865","0"
"GENERATED VIA SPACETRACK.ORG API","18 SPCS","55096","SPACEBEE-161","PAYLOAD","U","23001CR","2024-02-05 17:26:59","834688","15.32615301","0.0010644","97.4433","101.1843","260.9616","99.0421","0","999","6070","0.0012458","0.00039381","0","4180535","0 SPACEBEE-161","1 55096U 23001CR  24036.72708142  .00039381  00000-0  12458-2 0  9993","2 55096  97.4433 101.1843 0010644 260.9616  99.0421 15.32615301 60705","2023-001CR","55096","6846.150","93.957","475.302","460.728","0"
"GENERATED VIA SPACETRACK.ORG API","18 SPCS","55096","SPACEBEE-161","PAYLOAD","U","23001CR","2024-02-06 02:51:05","895936","15.32645668","0.0010634","97.4433","101.5783","259.6103","100.3941","0","999","6076","0.001236","0.00039107","0","4180707","0 SPACEBEE-161","1 55096U 23001CR  24037.11881824  .00039107  00000-0  12360-2 0  9994","2 55096  97.4433 101.5783 0010634 259.6103 100.3941 15.32645668 60765","2023-001CR","55096","6846.059","93.955","475.205","460.644","0"
"GENERATED VIA SPACETRACK.ORG API","18 SPCS","55096","SPACEBEE-161","PAYLOAD","U","23001CR","2024-02-06 02:51:05","895936","15.32645668","0.0010634","97.4433","101.5783","259.6103","100.3941","0","999","6076","0.001236","0.00039107","0","4181108","0 SPACEBEE-161","1 55096U 23001CR  24037.11881824  .00039107  00000-0  12360-2 0  9994","2 55096  97.4433 101.5783 0010634 259.6103 100.3941 15.32645668 60765","2023-001CR","55096","6846.059","93.955","475.205","460.644","0"
"GENERATED VIA SPACETRACK.ORG API","18 SPCS","55096","SPACEBEE-161","PAYLOAD","U","23001CR","2024-02-06 16:57:13","533696","15.32698629","0.0010602","97.4434","102.1695","257.1584","102.8473","0","999","6085","0.0013182","0.00041796","0","4181430","0 SPACEBEE-161","1 55096U 23001CR  24037.70640664  .00041796  00000-0  13182-2 0  9994","2 55096  97.4434 102.1695 0010602 257.1584 102.8473 15.32698629 60858","2023-001CR","55096","6845.902","93.952","475.025","460.509","0"
"GENERATED VIA SPACETRACK.ORG API","18 SPCS","55096","SPACEBEE-161","PAYLOAD","U","23001CR","2024-02-07 03:55:18","308640","15.32739085","0.0010581","97.4434","102.6292","254.5128","105.4945","0","999","6092","0.001364","0.00043314","0","4181600","0 SPACEBEE-161","1 55096U 23001CR  24038.16340635  .00043314  00000-0  13640-2 0  9997","2 55096  97.4434 102.6292 0010581 254.5128 105.4945 15.32739085 60920","2023-001CR","55096","6845.781","93.949","474.890","460.403","0"
"GENERATED VIA SPACETRACK.ORG API","18 SPCS","55096","SPACEBEE-161","PAYLOAD","U","23001CR","2024-02-07 10:11:20","578272","15.32758884","0.0010578","97.4434","102.8918","253.3723","106.6358","0","999","6096","0.0012503","0.00039703","0","4182068","0 SPACEBEE-161","1 55096U 23001CR  24038.42454373  .00039703  00000-0  12503-2 0  9995","2 55096  97.4434 102.8918 0010578 253.3723 106.6358 15.32758884 60964","2023-001CR","55096","6845.722","93.948","474.829","460.346","0"
"GENERATED VIA SPACETRACK.ORG API","18 SPCS","55096","SPACEBEE-161","PAYLOAD","U","23001CR","2024-02-07 14:53:22","78752","15.32776195","0.0010576","97.4432","103.0891","252.9797","107.0286","0","999","6099","0.0012376","0.00039318","0","4182370","0 SPACEBEE-161","1 55096U 23001CR  24038.62039443  .00039318  00000-0  12376-2 0  9994","2 55096  97.4432 103.0891 0010576 252.9797 107.0286 15.32776195 60992","2023-001CR","55096","6845.671","93.947","474.776","460.296","0"
"GENERATED VIA SPACETRACK.ORG API","18 SPCS","55096","SPACEBEE-161","PAYLOAD","U","23001CR","2024-02-08 01:51:24","845760","15.32817064","0.0010612","97.443","103.549","251.4376","108.5713","0","999","6106","0.0013705","0.0004363","0","4182958","0 SPACEBEE-161","1 55096U 23001CR  24039.07737090  .00043630  00000-0  13705-2 0  9996","2 55096  97.4430 103.5490 0010612 251.4376 108.5713 15.32817064 61069","2023-001CR","55096","6845.549","93.945","474.679","460.150","0"
"GENERATED VIA SPACETRACK.ORG API","18 SPCS","55096","SPACEBEE-161","PAYLOAD","U","23001CR","2024-02-08 17:31:27","56064","15.32873674","0.0010625","97.4428","104.2056","248.7972","111.2135","0","999","6116","0.0013715","0.0004374","0","4183115","0 SPACEBEE-161","1 55096U 23001CR  24039.73017426  .00043740  00000-0  13715-2 0  9996","2 55096  97.4428 104.2056 0010625 248.7972 111.2135 15.32873674 61166","2023-001CR","55096","6845.381","93.941","474.519","459.972","0"
"GENERATED VIA SPACETRACK.ORG API","18 SPCS","55096","SPACEBEE-161","PAYLOAD","U","23001CR","2024-02-08 17:31:27","56064","15.32873674","0.0010625","97.4428","104.2056","248.7972","111.2135","0","999","6116","0.0013715","0.0004374","0","4183231","0 SPACEBEE-161","1 55096U 23001CR  24039.73017426  .00043740  00000-0  13715-2 0  9996","2 55096  97.4428 104.2056 0010625 248.7972 111.2135 15.32873674 61166","2023-001CR","55096","6845.381","93.941","474.519","459.972","0"
"GENERATED VIA SPACETRACK.ORG API","18 SPCS","55096","SPACEBEE-161","PAYLOAD","U","23001CR","2024-02-09 02:55:27","321600","15.3291212","0.0010621","97.4426","104.5995","247.4035","112.6084","0","999","6122","0.0014892","0.00047582","0","4183826","0 SPACEBEE-161","1 55096U 23001CR  24040.12184400  .00047582  00000-0  14892-2 0  9993","2 55096  97.4426 104.5995 0010621 247.4035 112.6084 15.32912120 61226","2023-001CR","55096","6845.266","93.939","474.401","459.861","0"
"GENERATED VIA SPACETRACK.ORG API","18 SPCS","55096","SPACEBEE-161","PAYLOAD","U","23001CR","2024-02-10 03:59:24","374976","15.32998817","0.0010586","97.4422","105.6502","243.851","116.1643","0","999","6138","0.0012598","0.00040311","0","4184305","0 SPACEBEE-161","1 55096U 23001CR  24041.16625434  .00040311  00000-0  12598-2 0  9999","2 55096  97.4422 105.6502 0010586 243.8510 116.1643 15.32998817 61380","2023-001CR","55096","6845.008","93.934","474.119","459.627","0"
"GENERATED VIA SPACETRACK.ORG API","18 SPCS","55096","SPACEBEE-161","PAYLOAD","U","23001CR","2024-02-10 03:59:24","374976","15.32998817","0.0010586","97.4422","105.6502","243.851","116.1643","0","999","6138","0.0012598","0.00040311","0","4184737","0 SPACEBEE-161","1 55096U 23001CR  24041.16625434  .00040311  00000-0  12598-2 0  9999","2 55096  97.4422 105.6502 0010586 243.8510 116.1643 15.32998817 61380","2023-001CR","55096","6845.008","93.934","474.119","459.627","0"
"GENERATED VIA SPACETRACK.ORG API","18 SPCS","55096","SPACEBEE-161","PAYLOAD","U","23001CR","2024-02-10 16:31:20","873856","15.33046696","0.0010584","97.4419","106.1758","241.9823","118.0349","0","999","6146","0.0013287","0.00042596","0","4185013","0 SPACEBEE-161","1 55096U 23001CR  24041.68843604  .00042596  00000-0  13287-2 0  9990","2 55096  97.4419 106.1758 0010584 241.9823 118.0349 15.33046696 61462","2023-001CR","55096","6844.866","93.931","473.975","459.486","0"
